PERSEUS-M1              
1 40039U 14033AF  26140.27066840  .00001176  00000+0  11148-3 0  9995
2 40039  97.9635  83.9492 0012619  36.7240 323.4843 14.95528553646463
POLYITAN-1              
1 40042U 14033AJ  26140.30624183  .00012892  00000+0  41719-3 0  9997
2 40042  98.0962 163.9521 0005797 233.5703 126.5003 15.32192125649326
TIGRISAT                
1 40043U 14033AK  26140.15433426  .00001389  00000+0  16551-3 0  9994
2 40043  97.7800 290.8168 0049856 165.0739 195.1962 14.85027277641468
AEROCUBE 6A             
1 40045U 14033AM  26139.96757501  .00003448  00000+0  29408-3 0  9999
2 40045  97.7226 307.2283 0040077 109.2697 251.2867 14.97764196642394
AEROCUBE 6B             
1 40046U 14033AN  26140.19742525  .00004350  00000+0  35663-3 0  9990
2 40046  97.7181 307.1864 0038659 101.8070 258.7493 14.99188741642569
CANX-4                  
1 40055U 14034C   26140.18542655  .00000564  00000+0  79736-4 0  9995
2 40055  98.3156  14.4664 0014119 100.0392 260.2413 14.81206191640386
CANX-5                  
1 40056U 14034D   26140.18418306  .00000569  00000+0  80344-4 0  9993
2 40056  98.3159  14.5070 0014113 100.2391 260.0413 14.81223276631197
UKUBE-1                 
1 40074U 14037F   26140.26500294  .00005626  00000+0  32261-3 0  9996
2 40074  98.4245 140.6158 0000528 135.5990 224.5281 15.13049410644333
BRITE-PL2 (HEWELIUSZ)   
1 40119U 14049B   26140.25347368  .00001557  00000+0  14965-3 0  9999
2 40119  97.9068 252.0453 0013711 196.6097 163.4675 14.94474540637277
AEROCUBE 5C             
1 40965U 15058B   26140.00708012  .00002033  00000+0  18855-3 0  9991
2 40965  64.7680 350.2467 0129951  74.3559 287.1849 14.91278612361453
AEROCUBE 7              
1 40966U 15058C   26140.21711200  .00002933  00000+0  24304-3 0  9993
2 40966  64.7629 332.4093 0119728  72.9256 288.4932 14.95489567361772
FOX-1A (AO-85)          
1 40967U 15058D   26139.97838420  .00002104  00000+0  19745-3 0  9992
2 40967  64.7763   6.6371 0129254  67.6636 293.8116 14.90787539109363
SINOD-D 1               
1 40968U 15058E   26139.99780891  .00002968  00000+0  24574-3 0  9997
2 40968  64.7759 347.1758 0117765  64.4013 296.9216 14.95666796112443
SNAP-3 ALICE            
1 40970U 15058G   26140.29637757  .00061803  00000+0  91631-3 0  9998
2 40970  64.7513 199.8792 0033450  26.2611 334.0218 15.54216611112542
LMRST-SAT               
1 40971U 15058H   26140.06076238  .00002104  00000+0  19855-3 0  9992
2 40971  64.7769   2.6661 0131012  69.6512 291.8619 14.90413776109367
SNAP-3 EDDIE            
1 40972U 15058J   26140.30777470  .00058376  00000+0  82961-3 0  9996
2 40972  64.7432 190.7654 0033735  30.0386 330.2683 15.55372152114684
PROPCUBE 3              
1 40973U 15058K   26140.16509617  .00002502  00000+0  21589-3 0  9996
2 40973  64.7690 340.0744 0123126  71.0923 290.3491 14.94049414110613
BISONSAT                
1 40974U 15058L   26139.73095603  .00007776  00000+0  38718-3 0  9993
2 40974  64.7603 265.5963 0078574  59.3035 301.5801 15.15567997111303
SNAP-3 JIMI             
1 40975U 15058M   26139.89467661  .00004103  00000+0  28983-3 0  9992
2 40975  64.7653 309.2669 0105121  67.1249 294.0925 15.01986603109978
PROPCUBE 1 (FLORA)      
1 40976U 15058N   26140.05698020  .00001997  00000+0  19660-3 0  9998
2 40976  64.7760  22.4084 0129806  71.9318 289.5884 14.89044934112074
SINOD-D 3               
1 40977U 15058P   26140.05811038  .00002810  00000+0  24500-3 0  9999
2 40977  64.7734   3.6432 0118280  69.3837 291.9915 14.93780341110552
HORYU-4                 
1 41340U 16012D   26140.07310731  .00168826  00000+0  85162-3 0  9992
2 41340  30.9886 282.7817 0004402  84.7285 275.3874 15.80017003566342
RAVAN                   
1 41849U 16067B   26140.21302343  .00036445  00000+0  60778-3 0  9999
2 41849  97.9926  26.6137 0007162 100.8341 259.3716 15.51874524523351
CELTEE 1                
1 41850U 16067C   26140.15450490  .00003565  00000+0  17225-3 0  9997
2 41850  98.0704   4.8110 0001439  56.1866 303.9504 15.19373973521629
OPTICUBE 04             
1 41851U 16067D   26140.04088990  .00001264  00000+0  83133-4 0  9994
2 41851  98.0725 350.8547 0014924 208.4717 151.5697 15.09525931520925
AEROCUBE 8D             
1 41852U 16067E   26140.18851374  .00005270  00000+0  22118-3 0  9990
2 41852  98.0712   8.2341 0002423 208.2335 151.8769 15.23960852521805
AEROCUBE 8C             
1 41853U 16067F   26140.15233178  .00005191  00000+0  21630-3 0  9994
2 41853  98.0583   5.4594 0006119 144.8910 215.2730 15.24200198521793
CORVUS BC2              
1 42846U 17042X   26140.15951737  .00001488  00000+0  10575-3 0  9990
2 42846  97.4041 302.6080 0012527 201.1021 158.9691 15.06092319482845
CORVUS BC1              
1 42847U 17042Y   26140.02445020  .00001579  00000+0  11146-3 0  9996
2 42847  97.4071 303.2738 0012006 177.4369 182.6922 15.06262625482859
MAKERSAT 0              
1 43016U 17073D   26140.21583069  .00019291  00000+0  53752-3 0  9995
2 43016  97.4657  22.5369 0110313  13.6755 346.7432 15.30827686462183
